[
    {
        "Altitude(m)": 706204.6698688947,
        "Argument of Periapsis(deg)": 0.0,
        "Eccentricity": 0.0,
        "Inclination(deg)": 45.0,
        "Latitude(deg)": 40.173580932376964,
        "Longitude(deg)": 122.1430259430545,
        "Mean Anomaly(deg)": 65.45450000000001,
        "RAAN(deg)": 165.0,
        "Satellite Name": "Constellation 1 730",
        "Satellite Number": 730,
        "Semi-Major Axis(m)": 7083131.272910544,
        "Time(s)": 0
    },
    {
        "Altitude(m)": 706209.6815308514,
        "Argument of Periapsis(deg)": 5.994800624540561e-05,
        "Eccentricity": 0.0,
        "Inclination(deg)": 45.0,
        "Latitude(deg)": 40.19693357760017,
        "Longitude(deg)": 122.21215644616537,
        "Mean Anomaly(deg)": 65.51520114024989,
        "RAAN(deg)": 164.99994341083445,
        "Satellite Name": "Constellation 1 730",
        "Satellite Number": 730,
        "Semi-Major Axis(m)": 7083131.272910544,
        "Time(s)": 1
    },
    {
        "Altitude(m)": 706214.6850752191,
        "Argument of Periapsis(deg)": 0.00011989601249081122,
        "Eccentricity": 0.0,
        "Inclination(deg)": 45.0,
        "Latitude(deg)": 40.22023977722354,
        "Longitude(deg)": 122.28133712889137,
        "Mean Anomaly(deg)": 65.5759022804998,
        "RAAN(deg)": 164.99988682166884,
        "Satellite Name": "Constellation 1 730",
        "Satellite Number": 730,
        "Semi-Major Axis(m)": 7083131.272910544,
        "Time(s)": 2
    },
    {
        "Altitude(m)": 706219.6804717282,
        "Argument of Periapsis(deg)": 0.00017984401873621686,
        "Eccentricity": 0.0,
        "Inclination(deg)": 45.0,
        "Latitude(deg)": 40.243499461877384,
        "Longitude(deg)": 122.35056796704953,
        "Mean Anomaly(deg)": 65.6366034207497,
        "RAAN(deg)": 164.99983023250329,
        "Satellite Name": "Constellation 1 730",
        "Satellite Number": 730,
        "Semi-Major Axis(m)": 7083131.272910544,
        "Time(s)": 3
    },
    {
        "Altitude(m)": 706224.667690173,
        "Argument of Periapsis(deg)": 0.00023979202498162244,
        "Eccentricity": 0.0,
        "Inclination(deg)": 45.0,
        "Latitude(deg)": 40.26671256220552,
        "Longitude(deg)": 122.41984893599071,
        "Mean Anomaly(deg)": 65.69730456099961,
        "RAAN(deg)": 164.9997736433377,
        "Satellite Name": "Constellation 1 730",
        "Satellite Number": 730,
        "Semi-Major Axis(m)": 7083131.272910544,
        "Time(s)": 4
    },
    {
        "Altitude(m)": 706229.6467004122,
        "Argument of Periapsis(deg)": 0.00029974003122702807,
        "Eccentricity": 0.0,
        "Inclination(deg)": 45.0,
        "Latitude(deg)": 40.289879008866144,
        "Longitude(deg)": 122.48918001059793,
        "Mean Anomaly(deg)": 65.75800570124944,
        "RAAN(deg)": 164.99971705417215,
        "Satellite Name": "Constellation 1 730",
        "Satellite Number": 730,
        "Semi-Major Axis(m)": 7083131.272910544,
        "Time(s)": 5
    },
    {
        "Altitude(m)": 706234.6174723457,
        "Argument of Periapsis(deg)": 0.00035968803747243373,
        "Eccentricity": 0.0,
        "Inclination(deg)": 45.0,
        "Latitude(deg)": 40.31299873253242,
        "Longitude(deg)": 122.55856116528567,
        "Mean Anomaly(deg)": 65.81870684149942,
        "RAAN(deg)": 164.99966046500657,
        "Satellite Name": "Constellation 1 730",
        "Satellite Number": 730,
        "Semi-Major Axis(m)": 7083131.272910544,
        "Time(s)": 6
    },
    {
        "Altitude(m)": 706239.5799759366,
        "Argument of Periapsis(deg)": 0.00041963604371783933,
        "Eccentricity": 0.0,
        "Inclination(deg)": 45.0,
        "Latitude(deg)": 40.336071663893236,
        "Longitude(deg)": 122.62799220590044,
        "Mean Anomaly(deg)": 65.87940798174928,
        "RAAN(deg)": 164.999603875841,
        "Satellite Name": "Constellation 1 730",
        "Satellite Number": 730,
        "Semi-Major Axis(m)": 7083131.272910544,
        "Time(s)": 7
    },
    {
        "Altitude(m)": 706244.5341812043,
        "Argument of Periapsis(deg)": 0.0004795840499632449,
        "Eccentricity": 0.0,
        "Inclination(deg)": 45.0,
        "Latitude(deg)": 40.35909773365345,
        "Longitude(deg)": 122.69747344210971,
        "Mean Anomaly(deg)": 65.94010912199919,
        "RAAN(deg)": 164.99954728667544,
        "Satellite Name": "Constellation 1 730",
        "Satellite Number": 730,
        "Semi-Major Axis(m)": 7083131.272910544,
        "Time(s)": 8
    },
    {
        "Altitude(m)": 706249.4800582217,
        "Argument of Periapsis(deg)": 0.0005395320562086505,
        "Eccentricity": 0.0,
        "Inclination(deg)": 45.0,
        "Latitude(deg)": 40.382076872535215,
        "Longitude(deg)": 122.76700467881605,
        "Mean Anomaly(deg)": 66.00081026224906,
        "RAAN(deg)": 164.99949069750988,
        "Satellite Name": "Constellation 1 730",
        "Satellite Number": 730,
        "Semi-Major Axis(m)": 7083131.272910544,
        "Time(s)": 9
    },
    {
        "Altitude(m)": 706254.4175771173,
        "Argument of Periapsis(deg)": 0.0005994800624540561,
        "Eccentricity": 0.0,
        "Inclination(deg)": 45.0,
        "Latitude(deg)": 40.40500901127825,
        "Longitude(deg)": 122.83658588854544,
        "Mean Anomaly(deg)": 66.06151140249898,
        "RAAN(deg)": 164.9994341083443,
        "Satellite Name": "Constellation 1 730",
        "Satellite Number": 730,
        "Semi-Major Axis(m)": 7083131.272910544,
        "Time(s)": 10
    },
    {
        "Altitude(m)": 706259.3467080828,
        "Argument of Periapsis(deg)": 0.0006594280686994618,
        "Eccentricity": 0.0,
        "Inclination(deg)": 45.0,
        "Latitude(deg)": 40.42789408064062,
        "Longitude(deg)": 122.90621704334883,
        "Mean Anomaly(deg)": 66.12221254274891,
        "RAAN(deg)": 164.99937751917872,
        "Satellite Name": "Constellation 1 730",
        "Satellite Number": 730,
        "Semi-Major Axis(m)": 7083131.272910544,
        "Time(s)": 11
    },
    {
        "Altitude(m)": 706264.2674213512,
        "Argument of Periapsis(deg)": 0.0007193760749448675,
        "Eccentricity": 0.0,
        "Inclination(deg)": 45.0,
        "Latitude(deg)": 40.450732011399275,
        "Longitude(deg)": 122.97589811480029,
        "Mean Anomaly(deg)": 66.18291368299877,
        "RAAN(deg)": 164.99932093001314,
        "Satellite Name": "Constellation 1 730",
        "Satellite Number": 730,
        "Semi-Major Axis(m)": 7083131.272910544,
        "Time(s)": 12
    },
    {
        "Altitude(m)": 706269.1796872243,
        "Argument of Periapsis(deg)": 0.000779324081190273,
        "Eccentricity": 0.0,
        "Inclination(deg)": 45.0,
        "Latitude(deg)": 40.473522734351015,
        "Longitude(deg)": 123.0456290739966,
        "Mean Anomaly(deg)": 66.2436148232487,
        "RAAN(deg)": 164.9992643408476,
        "Satellite Name": "Constellation 1 730",
        "Satellite Number": 730,
        "Semi-Major Axis(m)": 7083131.272910544,
        "Time(s)": 13
    },
    {
        "Altitude(m)": 706274.0834760598,
        "Argument of Periapsis(deg)": 0.0008392720874356787,
        "Eccentricity": 0.0,
        "Inclination(deg)": 45.0,
        "Latitude(deg)": 40.49626618031281,
        "Longitude(deg)": 123.11540989155517,
        "Mean Anomaly(deg)": 66.3043159634986,
        "RAAN(deg)": 164.99920775168204,
        "Satellite Name": "Constellation 1 730",
        "Satellite Number": 730,
        "Semi-Major Axis(m)": 7083131.272910544,
        "Time(s)": 14
    },
    {
        "Altitude(m)": 706278.9787582691,
        "Argument of Periapsis(deg)": 0.0008992200936810842,
        "Eccentricity": 0.0,
        "Inclination(deg)": 45.0,
        "Latitude(deg)": 40.518962280123006,
        "Longitude(deg)": 123.18524036951631,
        "Mean Anomaly(deg)": 66.36501710374846,
        "RAAN(deg)": 164.99915116251643,
        "Satellite Name": "Constellation 1 730",
        "Satellite Number": 730,
        "Semi-Major Axis(m)": 7083131.272910544,
        "Time(s)": 15
    },
    {
        "Altitude(m)": 706283.8655043147,
        "Argument of Periapsis(deg)": 0.0009591680999264898,
        "Eccentricity": 0.0,
        "Inclination(deg)": 45.0,
        "Latitude(deg)": 40.54161096464118,
        "Longitude(deg)": 123.25512081373064,
        "Mean Anomaly(deg)": 66.42571824399835,
        "RAAN(deg)": 164.99909457335087,
        "Satellite Name": "Constellation 1 730",
        "Satellite Number": 730,
        "Semi-Major Axis(m)": 7083131.272910544,
        "Time(s)": 16
    },
    {
        "Altitude(m)": 706288.7436847335,
        "Argument of Periapsis(deg)": 0.0010191161061718953,
        "Eccentricity": 0.0,
        "Inclination(deg)": 45.0,
        "Latitude(deg)": 40.56421216474978,
        "Longitude(deg)": 123.32505102527438,
        "Mean Anomaly(deg)": 66.48641938424828,
        "RAAN(deg)": 164.99903798418532,
        "Satellite Name": "Constellation 1 730",
        "Satellite Number": 730,
        "Semi-Major Axis(m)": 7083131.272910544,
        "Time(s)": 17
    },
    {
        "Altitude(m)": 706293.6132700986,
        "Argument of Periapsis(deg)": 0.001079064112417301,
        "Eccentricity": 0.0,
        "Inclination(deg)": 45.0,
        "Latitude(deg)": 40.586765811354255,
        "Longitude(deg)": 123.3950309728369,
        "Mean Anomaly(deg)": 66.5471205244982,
        "RAAN(deg)": 164.99898139501974,
        "Satellite Name": "Constellation 1 730",
        "Satellite Number": 730,
        "Semi-Major Axis(m)": 7083131.272910544,
        "Time(s)": 18
    }
]